2026-134G               
1 69544U 26134G   26178.72684214  .00005271  00000+0  33036-3 0  9994
2 69544  97.7055 248.8828 0014622 238.7462 121.2334 15.09703479  1899
2026-134H               
1 69545U 26134H   26178.92512735  .00005314  00000+0  33240-3 0  9990
2 69545  97.7039 249.0813 0014479 239.3826 120.5975 15.09771776  1911
STARLINK-37880          
1 69546U 26135A   26178.59760679  .00225333  00000+0  11449-2 0  9998
2 69546  97.2842 206.1949 0003188  75.7304 284.4318 15.80853594  1909
STARLINK-37881          
1 69547U 26135B   26178.59702446  .00256965  00000+0  13008-2 0  9995
2 69547  97.2816 206.1939 0000461 123.2462 236.8850 15.80855224  1909
STARLINK-37265          
1 69548U 26135C   26178.97616308  .00238420  00000+0  12061-2 0  9993
2 69548  97.2818 206.5965 0001772  51.4113 308.7314 15.80917695  1967
STARLINK-37871          
1 69549U 26135D   26178.65872433  .00168801  00000+0  86295-3 0  9998
2 69549  97.2833 206.2640 0001786  81.9552 278.1919 15.80868974  1913
STARLINK-37865          
1 69550U 26135E   26178.97378281  .00244796  00000+0  12379-2 0  9996
2 69550  97.2819 206.6000 0001966 112.1197 248.0280 15.80909986  1966
STARLINK-37862          
1 69551U 26135F   26178.59117667  .00378365  00000+0  18897-2 0  9995
2 69551  97.2828 206.2028 0001008 155.1218 205.0099 15.80837803  1904
STARLINK-37861          
1 69552U 26135G   26178.52597476  .00469320  00000+0  22991-2 0  9991
2 69552  97.2830 206.1389 0001722  53.3440 306.7987 15.81029353  1893
STARLINK-37859          
1 69553U 26135H   26178.58833227  .00180120  00000+0  91902-3 0  9992
2 69553  97.2832 206.2069 0001302 113.9707 246.1698 15.80882420  1904
STARLINK-37860          
1 69554U 26135J   26178.58807060  .00261134  00000+0  13217-2 0  9996
2 69554  97.2835 206.2072 0004463  69.7186 290.4561 15.80839949  1901
STARLINK-37858          
1 69555U 26135K   26178.64954195  .00281155  00000+0  14210-2 0  9995
2 69555  97.2830 206.2768 0000826 179.6058 180.5211 15.80826857  1913
STARLINK-37927          
1 69556U 26135L   26178.64930439  .00143104  00000+0  73591-3 0  9990
2 69556  97.2829 206.2769 0000843 114.1005 246.0351 15.80808361  1911
STARLINK-37929          
1 69557U 26135M   26178.58517621  .00178141  00000+0  91061-3 0  9999
2 69557  97.2842 206.2116 0003370  76.7077 283.4567 15.80842381  1906
STARLINK-37954          
1 69558U 26135N   26178.64725702  .00342316  00000+0  17192-2 0  9997
2 69558  97.2829 206.2795 0000722 212.8683 147.2541 15.80808493  1915
STARLINK-37958          
1 69559U 26135P   26178.58149353  .00200379  00000+0  10219-2 0  9998
2 69559  97.2842 206.2170 0003289  71.8877 288.2749 15.80834897  1909
STARLINK-37950          
1 69560U 26135Q   26178.83453996  .00382422  00000+0  19028-2 0  9996
2 69560  97.2841 206.4840 0000494 344.6539  15.4714 15.80908544  1944
STARLINK-37952          
1 69561U 26135R   26178.64323740  .00214960  00000+0  10951-2 0  9996
2 69561  97.2839 206.2853 0001059 170.0282 190.1008 15.80825276  1912
STARLINK-37935          
1 69562U 26135S   26178.57917374  .00176635  00000+0  90346-3 0  9994
2 69562  97.2842 206.2208 0002349  72.5641 287.5884 15.80836096  1903
STARLINK-37936          
1 69563U 26135T   26178.82535389  .00297220  00000+0  14931-2 0  9994
2 69563  97.2839 206.4967 0001073  66.8689 293.2693 15.80919575  1945
STARLINK-37932          
1 69564U 26135U   26178.82500167  .00338242  00000+0  16904-2 0  9993
2 69564  97.2834 206.4972 0001990  77.5970 282.5521 15.80927011  1942
STARLINK-37916          
1 69565U 26135V   26178.82443583  .00250637  00000+0  12694-2 0  9995
2 69565  97.2836 206.4990 0000701  89.0306 271.1043 15.80859836  1947
STARLINK-37909          
1 69566U 26135W   26178.81813581  .00175775  00000+0  89748-3 0  9998
2 69566  97.2843 206.5073 0000854  89.0224 271.1142 15.80878574  1947
STARLINK-37934          
1 69567U 26135X   26178.63143615  .00250906  00000+0  12725-2 0  9993
2 69567  97.2825 206.3018 0000619  72.8254 287.3082 15.80830260  1916
STARLINK-37938          
1 69568U 26135Y   26178.81889713  .00178013  00000+0  90860-3 0  9995
2 69568  97.2837 206.5066 0000719  81.6807 278.4543 15.80880138  1943
STARLINK-37924          
1 69569U 26135Z   26178.81613865  .00091170  00000+0  47106-3 0  9992
2 69569  97.2843 206.5091 0001163  83.3752 276.7648 15.80848218  1941
SHIJIAN-31 (SJ-31)      
1 69570U 26136A   26178.89918065 -.00000034  00000+0  00000+0 0  9991
2 69570  63.4784 354.9745 6941019 171.7745 212.4476  1.92225124   295
GUOWANG OBJECT A        
1 69572U 26137A   26178.86435625 -.00000010  00000+0  10961-3 0  9992
2 69572  49.9990 212.8694 0012624 260.6926  99.2545 13.89812974  1501
GUOWANG OBJECT B        
1 69573U 26137B   26178.78949457  .00000030  00000+0  14258-3 0  9991
2 69573  49.9988 213.1390 0011846 259.7314 100.2248 13.89804930  1507
