OBJECT_NAME,OBJECT_ID,EPOCH,MEAN_MOTION,ECCENTRICITY,INCLINATION,RA_OF_ASC_NODE,ARG_OF_PERICENTER,MEAN_ANOMALY,EPHEMERIS_TYPE,CLASSIFICATION_TYPE,NORAD_CAT_ID,ELEMENT_SET_NO,REV_AT_EPOCH,BSTAR,MEAN_MOTION_DOT,MEAN_MOTION_DDOT
2026-134G,2026-134G,2026-06-27T17:26:39.160896,15.09703479,.0014622,97.7055,248.8828,238.7462,121.2334,0,U,69544,999,189,.33035732E-3,.5271E-4,0
2026-134H,2026-134H,2026-06-27T22:12:11.003040,15.09771776,.00144797,97.7039,249.0813,239.3826,120.5975,0,U,69545,999,191,.33239794E-3,.5314E-4,0
STARLINK-37880,2026-135A,2026-06-27T14:20:33.226656,15.80853594,.00031888,97.2842,206.1949,75.7304,284.4318,0,U,69546,999,190,.11448733E-2,.225333E-2,0
STARLINK-37881,2026-135B,2026-06-27T14:19:42.913344,15.80855224,.00004618,97.2816,206.1939,123.2462,236.8850,0,U,69547,999,190,.13007759E-2,.256965E-2,0
STARLINK-37265,2026-135C,2026-06-27T23:25:40.490112,15.80917695,.00017729,97.2818,206.5965,51.4113,308.7314,0,U,69548,999,196,.1206127E-2,.23842E-2,0
STARLINK-37871,2026-135D,2026-06-27T15:48:33.782112,15.80868974,.00017861,97.2833,206.2640,81.9552,278.1919,0,U,69549,999,191,.8629484E-3,.168801E-2,0
STARLINK-37865,2026-135E,2026-06-27T23:22:14.834784,15.80909986,.00019669,97.2819,206.6000,112.1197,248.0280,0,U,69550,999,196,.12378787E-2,.244796E-2,0
STARLINK-37862,2026-135F,2026-06-27T14:11:17.664288,15.80837803,.00010082,97.2828,206.2028,155.1218,205.0099,0,U,69551,999,190,.18897015E-2,.378365E-2,0
STARLINK-37861,2026-135G,2026-06-27T12:37:24.219264,15.81029353,.00017227,97.2830,206.1389,53.3440,306.7987,0,U,69552,999,189,.22990665E-2,.46932E-2,0
STARLINK-37859,2026-135H,2026-06-27T14:07:11.908128,15.80882420,.0001302,97.2832,206.2069,113.9707,246.1698,0,U,69553,999,190,.9190167E-3,.18012E-2,0
STARLINK-37860,2026-135J,2026-06-27T14:06:49.299840,15.80839949,.0004463,97.2835,206.2072,69.7186,290.4561,0,U,69554,999,190,.13217296E-2,.261134E-2,0
STARLINK-37858,2026-135K,2026-06-27T15:35:20.424480,15.80826857,.00008262,97.2830,206.2768,179.6058,180.5211,0,U,69555,999,191,.14210367E-2,.281155E-2,0
STARLINK-37927,2026-135L,2026-06-27T15:34:59.899296,15.80808361,.00008431,97.2829,206.2769,114.1005,246.0351,0,U,69556,999,191,.73591306E-3,.143104E-2,0
STARLINK-37929,2026-135M,2026-06-27T14:02:39.224544,15.80842381,.00033701,97.2842,206.2116,76.7077,283.4567,0,U,69557,999,190,.91061073E-3,.178141E-2,0
STARLINK-37954,2026-135N,2026-06-27T15:32:03.006528,15.80808493,.00007222,97.2829,206.2795,212.8683,147.2541,0,U,69558,999,191,.17191722E-2,.342316E-2,0
STARLINK-37958,2026-135P,2026-06-27T13:57:21.040992,15.80834897,.0003289,97.2842,206.2170,71.8877,288.2749,0,U,69559,999,190,.10219471E-2,.200379E-2,0
STARLINK-37950,2026-135Q,2026-06-27T20:01:44.252544,15.80908544,.00004945,97.2841,206.4840,344.6539,15.4714,0,U,69560,999,194,.19028243E-2,.382422E-2,0
STARLINK-37952,2026-135R,2026-06-27T15:26:15.711360,15.80825276,.00010597,97.2839,206.2853,170.0282,190.1008,0,U,69561,999,191,.10950913E-2,.21496E-2,0
STARLINK-37935,2026-135S,2026-06-27T13:54:00.611136,15.80836096,.00023495,97.2842,206.2208,72.5641,287.5884,0,U,69562,999,190,.90345854E-3,.176635E-2,0
STARLINK-37936,2026-135T,2026-06-27T19:48:30.576096,15.80919575,.0001073,97.2839,206.4967,66.8689,293.2693,0,U,69563,999,194,.14930832E-2,.29722E-2,0
STARLINK-37932,2026-135U,2026-06-27T19:48:00.144288,15.80927011,.00019902,97.2834,206.4972,77.5970,282.5521,0,U,69564,999,194,.16904399E-2,.338242E-2,0
STARLINK-37916,2026-135V,2026-06-27T19:47:11.255712,15.80859836,.00007018,97.2836,206.4990,89.0306,271.1043,0,U,69565,999,194,.12694444E-2,.250637E-2,0
STARLINK-37909,2026-135W,2026-06-27T19:38:06.933984,15.80878574,.00008548,97.2843,206.5073,89.0224,271.1142,0,U,69566,999,194,.89747596E-3,.175775E-2,0
STARLINK-37934,2026-135X,2026-06-27T15:09:16.083360,15.80830260,.00006199,97.2825,206.3018,72.8254,287.3082,0,U,69567,999,191,.12724744E-2,.250906E-2,0
STARLINK-37938,2026-135Y,2026-06-27T19:39:12.712032,15.80880138,.00007199,97.2837,206.5066,81.6807,278.4543,0,U,69568,999,194,.90859531E-3,.178013E-2,0
STARLINK-37924,2026-135Z,2026-06-27T19:35:14.379360,15.80848218,.0001163,97.2843,206.5091,83.3752,276.7648,0,U,69569,999,194,.47106219E-3,.9117E-3,0
SHIJIAN-31 (SJ-31),2026-136A,2026-06-27T21:34:49.208160,1.92225124,.69410195,63.4784,354.9745,171.7745,212.4476,0,U,69570,999,29,0,-.34E-6,0
GUOWANG OBJECT A,2026-137A,2026-06-27T20:44:40.380000,13.89812974,.00126247,49.9990,212.8694,260.6926,99.2545,0,U,69572,999,150,.10960745E-3,-.1E-6,0
GUOWANG OBJECT B,2026-137B,2026-06-27T18:56:52.330848,13.89804930,.00118467,49.9988,213.1390,259.7314,100.2248,0,U,69573,999,150,.14257754E-3,.3E-6,0
